<?xml version="1.0" encoding="UTF-8" standalone="yes"?>
<ndm>
    <oem id="CCSDS_OEM_VERS" version="2.0">
        <header>
            <CREATION_DATE>2021-274T17:27:25.130Z</CREATION_DATE>
            <ORIGINATOR>JSC</ORIGINATOR>
        </header>
        <body>
            <segment>
                <metadata>
                    <OBJECT_NAME>ISS</OBJECT_NAME>
                    <OBJECT_ID>1998-067-A</OBJECT_ID>
                    <CENTER_NAME>EARTH</CENTER_NAME>
                    <REF_FRAME>EME2000</REF_FRAME>
                    <TIME_SYSTEM>UTC</TIME_SYSTEM>
                    <START_TIME>2021-274T13:02:53.536Z</START_TIME>
                    <STOP_TIME>2021-289T13:02:53.536Z</STOP_TIME>
                </metadata>
                <data>
                    <COMMENT>Units are in kg and m^2</COMMENT>
                    <COMMENT>MASS=447606.00</COMMENT>
                    <COMMENT>DRAG_AREA=1964.96</COMMENT>
                    <COMMENT>DRAG_COEFF=1.80</COMMENT>
                    <COMMENT>SOLAR_RAD_AREA=0.00</COMMENT>
                    <COMMENT>SOLAR_RAD_COEFF=0.00</COMMENT>
                    <COMMENT>Orbits start at the ascending node epoch </COMMENT>
                    <COMMENT>ISS first asc. node: EPOCH = 2021-10-01T13:17:12.057 $ ORBIT = 2507 $ LAN(DEG) = -32.99261</COMMENT>
                    <COMMENT>ISS last asc. node : EPOCH = 2021-10-16T12:32:07.313 $ ORBIT = 2739 $ LAN(DEG) = -110.51044</COMMENT>
                    <COMMENT>Begin sequence of events</COMMENT>
                    <COMMENT>TRAJECTORY EVENT SUMMARY:</COMMENT>
                    <COMMENT></COMMENT>
                    <COMMENT>|       EVENT        |       TIG        | ORB |   DV    |   HA    |   HP    |</COMMENT>
                    <COMMENT>|                    |       GMT        |     |   M/S   |   KM    |   KM    |</COMMENT>
                    <COMMENT>|                    |                  |     |  (F/S)  |  (NM)   |  (NM)   |</COMMENT>
                    <COMMENT>=============================================================================</COMMENT>
                    <COMMENT> 65S Launch            278:08:55:05.000             0.0     427.9     411.2</COMMENT>
                    <COMMENT>                                                   (0.0)   (231.0)   (222.1)</COMMENT>
                    <COMMENT></COMMENT>
                    <COMMENT> 65S 2-Orbit Docking   278:12:12:00.000             0.0     427.7     411.2</COMMENT>
                    <COMMENT>                                                   (0.0)   (230.9)   (222.1)</COMMENT>
                    <COMMENT></COMMENT>
                    <COMMENT> GMT285 Reboost Preli  285:07:28:00.000             0.5     428.0     410.8</COMMENT>
                    <COMMENT>                                                   (1.6)   (231.1)   (221.8)</COMMENT>
                    <COMMENT></COMMENT>
                    <COMMENT>=============================================================================</COMMENT>
                    <COMMENT>End sequence of events</COMMENT>
                    <stateVector>
                        <EPOCH>2021-276T16:12:00.000Z</EPOCH>
                        <X units="km">-4120.5884194072596</X>
                        <Y units="km">4002.78663152235</Y>
                        <Z units="km">-3642.3388107547498</Z>
                        <X_DOT units="km/s">-5.9078086650300996</X_DOT>
                        <Y_DOT units="km/s">-2.0960723884332699</Y_DOT>
                        <Z_DOT units="km/s">4.3905484769266501</Z_DOT>
                    </stateVector>
                    <stateVector>
                        <EPOCH>2021-276T16:16:00.000Z</EPOCH>
                        <X units="km">-5371.8963191449702</X>
                        <Y units="km">3360.7106928547701</Y>
                        <Z units="km">-2468.9881341003202</Z>
                        <X_DOT units="km/s">-4.4558376016011199</X_DOT>
                        <Y_DOT units="km/s">-3.2223203236397699</Y_DOT>
                        <Z_DOT units="km/s">5.3279523240934896</Z_DOT>
                    </stateVector>
                    <stateVector>
                        <EPOCH>2021-276T16:20:00.000Z</EPOCH>
                        <X units="km">-6233.2308423978002</X>
                        <Y units="km">2474.69348323433</Y>
                        <Z units="km">-1115.9253980388301</Z>
                        <X_DOT units="km/s">-2.67771300803722</X_DOT>
                        <Y_DOT units="km/s">-4.1163602479278802</Y_DOT>
                        <Z_DOT units="km/s">5.8787501692420001</Z_DOT>
                    </stateVector>
                    <stateVector>
                        <EPOCH>2021-276T16:24:00.000Z</EPOCH>
                        <X units="km">-6641.3848003067897</X>
                        <Y units="km">1408.7757891050801</Y>
                        <Z units="km">318.476937340836</Z>
                        <X_DOT units="km/s">-0.70243173011921001</X_DOT>
                        <Y_DOT units="km/s">-4.7121562648673896</Y_DOT>
                        <Z_DOT units="km/s">6.0014221179760199</Z_DOT>
                    </stateVector>
                    <stateVector>
                        <EPOCH>2021-276T16:28:00.000Z</EPOCH>
                        <X units="km">-6566.1631787772503</X>
                        <Y units="km">240.33280343320001</Y>
                        <Z units="km">1729.62181677539</Z>
                        <X_DOT units="km/s">1.32563052574391</X_DOT>
                        <Y_DOT units="km/s">-4.9653733010056298</Y_DOT>
                        <Z_DOT units="km/s">5.6860023139972</Z_DOT>
                    </stateVector>
                    <stateVector>
                        <EPOCH>2021-276T16:32:00.000Z</EPOCH>
                        <X units="km">-6012.7876175323299</X>
                        <Y units="km">-945.60532053915801</Y>
                        <Z units="km">3014.4471032423799</Z>
                        <X_DOT units="km/s">3.2576272957302299</X_DOT>
                        <Y_DOT units="km/s">-4.8570263513477299</Y_DOT>
                        <Z_DOT units="km/s">4.95523984167066</Z_DOT>
                    </stateVector>
                    <stateVector>
                        <EPOCH>2021-276T16:36:00.000Z</EPOCH>
                        <X units="km">-5021.5564711330198</X>
                        <Y units="km">-2062.68447787594</Y>
                        <Z units="km">4079.1361022534202</Z>
                        <X_DOT units="km/s">4.9520470908395797</X_DOT>
                        <Y_DOT units="km/s">-4.3951026361834096</Y_DOT>
                        <Z_DOT units="km/s">3.8628521561406699</Z_DOT>
                    </stateVector>
                    <stateVector>
                        <EPOCH>2021-276T16:40:00.000Z</EPOCH>
                        <X units="km">-3664.7663204339301</X>
                        <Y units="km">-3029.6210278203498</Y>
                        <Z units="km">4846.0457637736599</Z>
                        <X_DOT units="km/s">6.2853556634916998</X_DOT>
                        <Y_DOT units="km/s">-3.61353564230193</Y_DOT>
                        <Z_DOT units="km/s">2.48901321864414</Z_DOT>
                    </stateVector>
                    <stateVector>
                        <EPOCH>2021-276T16:44:00.000Z</EPOCH>
                        <X units="km">-2041.30526792313</X>
                        <Y units="km">-3776.1286982102902</Y>
                        <Z units="km">5259.35075792116</Z>
                        <X_DOT units="km/s">7.1607989662093496</X_DOT>
                        <Y_DOT units="km/s">-2.5694420688660702</Y_DOT>
                        <Z_DOT units="km/s">0.93421065450656005</Z_DOT>
                    </stateVector>
                    <stateVector>
                        <EPOCH>2021-276T16:48:00.000Z</EPOCH>
                        <X units="km">-269.37079755062899</X>
                        <Y units="km">-4247.9961977910298</Y>
                        <Z units="km">5289.0463096732701</Z>
                        <X_DOT units="km/s">7.5151632095329202</X_DOT>
                        <Y_DOT units="km/s">-1.3388310969358601</Y_DOT>
                        <Z_DOT units="km/s">-0.68819897961417997</Z_DOT>
                    </stateVector>
                    <stateVector>
                        <EPOCH>2021-276T16:52:00.000Z</EPOCH>
                        <X units="km">1522.1474503192601</X>
                        <Y units="km">-4410.9719335619602</Y>
                        <Z units="km">4933.0518645490101</Z>
                        <X_DOT units="km/s">7.3230250476354399</X_DOT>
                        <Y_DOT units="km/s">-0.01100592714245</Y_DOT>
                        <Z_DOT units="km/s">-2.2602693766380502</Z_DOT>
                    </stateVector>
                    <stateVector>
                        <EPOCH>2021-276T16:56:00.000Z</EPOCH>
                        <X units="km">3202.97206545784</X>
                        <Y units="km">-4253.2038579325999</Y>
                        <Z units="km">4217.3221908362002</Z>
                        <X_DOT units="km/s">6.5983196462326799</X_DOT>
                        <Y_DOT units="km/s">1.3177527207908799</Y_DOT>
                        <Z_DOT units="km/s">-3.6676704515822798</Z_DOT>
                    </stateVector>
                    
                </data>
            </segment>
        </body>
    </oem>
</ndm>
